NORAD_CAT_ID,OBJECT_NAME,OBJECT_TYPE,EPOCH,MEAN_MOTION,ECCENTRICITY,INCLINATION,RA_OF_ASC_NODE,ARG_OF_PERICENTER,MEAN_ANOMALY,BSTAR,MEAN_MOTION_DOT,MEAN_MOTION_DDOT,TLE_LINE0,TLE_LINE1,TLE_LINE2,SEMIMAJOR_AXIS,PERIOD,APOGEE,PERIGEE,DECAYED
50830.0,STARLINK-3278,PAYLOAD,2024-07-05 23:44:49,15.08852449,7.58e-05,53.2165,45.1504,80.1452,279.9626,0.00047859,7.34e-05,0.0,0 STARLINK-3278,1 50830U 22001AD  24187.98946416  .00007340  00000-0  47859-3 0  9990,2 50830  53.2165  45.1504 0000758  80.1452 279.9626 15.08852449139199,6917.842,95.437,540.232,539.183,0.0
50830.0,STARLINK-3278,PAYLOAD,2024-07-06 07:41:45,15.08846621,5.39e-05,53.2173,43.6627,99.3436,260.7617,0.000251,3.71e-05,0.0,0 STARLINK-3278,1 50830U 22001AD  24188.32066431  .00003710  00000-0  25100-3 0  9991,2 50830  53.2173  43.6627 0000539  99.3436 260.7617 15.08846621139247,6917.86,95.437,540.098,539.352,0.0
50830.0,STARLINK-3278,PAYLOAD,2024-07-06 14:03:18,15.08841901,0.0001332,53.2178,42.4753,83.4463,276.6681,0.00014839,2.075e-05,0.0,0 STARLINK-3278,1 50830U 22001AD  24188.58562860  .00002075  00000-0  14839-3 0  9996,2 50830  53.2178  42.4753 0001332  83.4463 276.6681 15.08841901138012,6917.875,95.437,540.661,538.818,0.0
50830.0,STARLINK-3278,PAYLOAD,2024-07-06 20:24:50,15.08841477,7.88e-05,53.2154,41.2833,105.4396,254.6683,0.00011555,1.552e-05,0.0,0 STARLINK-3278,1 50830U 22001AD  24188.85058716  .00001552  00000-0  11555-3 0  9997,2 50830  53.2154  41.2833 0000788 105.4396 254.6683 15.08841477139327,6917.876,95.437,540.286,539.196,0.0
50830.0,STARLINK-3278,PAYLOAD,2024-07-07 07:32:32,15.08838879,9.91e-05,53.2159,39.2023,101.0375,259.0728,0.00010378,1.364e-05,0.0,0 STARLINK-3278,1 50830U 22001AD  24189.31426935  .00001364  00000-0  10378-3 0  9994,2 50830  53.2159  39.2023 0000991 101.0375 259.0728 15.08838879138123,6917.884,95.438,540.434,539.063,0.0
50830.0,STARLINK-3278,PAYLOAD,2024-07-08 07:23:19,15.08842283,8.62e-05,53.2157,34.7424,82.4321,277.6769,0.00015469,2.175e-05,0.0,0 STARLINK-3278,1 50830U 22001AD  24190.30786892  .00002175  00000-0  15469-3 0  9993,2 50830  53.2157  34.7424 0000862  82.4321 277.6769 15.08842283139548,6917.873,95.437,540.335,539.142,0.0
50830.0,STARLINK-3278,PAYLOAD,2024-07-08 20:06:25,15.08835427,9.07e-05,53.2173,32.3626,92.1587,267.9509,0.00026411,3.918e-05,0.0,0 STARLINK-3278,1 50830U 22001AD  24190.83779407  .00003918  00000-0  26411-3 0  9990,2 50830  53.2173  32.3626 0000907  92.1587 267.9509 15.08835427139621,6917.894,95.438,540.387,539.132,0.0
50830.0,STARLINK-3278,PAYLOAD,2024-07-09 13:35:39,15.08839696,9.15e-05,53.2177,29.0923,85.682,274.4277,6.507e-05,7.48e-06,0.0,0 STARLINK-3278,1 50830U 22001AD  24191.56643139  .00000748  00000-0  65070-4 0  9996,2 50830  53.2177  29.0923 0000915  85.6820 274.4277 15.08839696138462,6917.881,95.438,540.379,539.113,0.0
50830.0,STARLINK-3278,PAYLOAD,2024-07-09 19:57:12,15.08842007,8.94e-05,53.2184,27.9018,91.5645,268.5449,8.817e-05,1.116e-05,0.0,0 STARLINK-3278,1 50830U 22001AD  24191.83138908  .00001116  00000-0  88170-4 0  9995,2 50830  53.2184  27.9018 0000894  91.5645 268.5449 15.08842007138509,6917.874,95.437,540.358,539.121,0.0
50830.0,STARLINK-3278,PAYLOAD,2024-07-09 23:07:58,15.08842646,8.94e-05,53.2184,27.3069,91.5369,268.5725,8.8133e-05,1.115e-05,0.0,0 STARLINK-3278,1 50830U 22001AD  24191.96386843  .00001115  00000-0  88133-4 0  9990,2 50830  53.2184  27.3069 0000894  91.5369 268.5725 15.08842646139790,6917.872,95.437,540.356,539.119,0.0
50830.0,STARLINK-3278,PAYLOAD,2024-07-10 13:26:27,15.088343,8.92e-05,53.2183,24.6298,89.0364,271.073,6.0017e-05,6.67e-06,0.0,0 STARLINK-3278,1 50830U 22001AD  24192.56003560  .00000667  00000-0  60017-4 0  9991,2 50830  53.2183  24.6298 0000892  89.0364 271.0730 15.08834300139881,6917.898,95.438,540.38,539.146,0.0
50830.0,STARLINK-3278,PAYLOAD,2024-07-12 05:11:04,15.0884533,4.46e-05,53.2164,17.1984,103.1901,256.914,5.2671e-05,5.51e-06,0.0,0 STARLINK-3278,1 50830U 22001AD  24194.21602864  .00000551  00000-0  52671-4 0  9996,2 50830  53.2164  17.1984 0000446 103.1901 256.9140 15.08845330140131,6917.864,95.437,540.038,539.421,0.0
50830.0,STARLINK-3278,PAYLOAD,2024-07-12 11:32:38,15.08834278,0.0001716,53.2183,16.008,91.5704,268.5485,3.7048e-05,3.02e-06,0.0,0 STARLINK-3278,1 50830U 22001AD  24194.48100042  .00000302  00000-0  37048-4 0  9991,2 50830  53.2183  16.0080 0001716  91.5704 268.5485 15.08834278140173,6917.898,95.438,540.95,538.576,0.0
50830.0,STARLINK-3278,PAYLOAD,2024-07-12 17:54:10,15.08835858,0.0001187,53.2182,14.8201,92.2765,267.8363,-2.0784e-05,-6.19e-06,0.0,0 STARLINK-3278,1 50830U 22001AD  24194.74595544 -.00000619  00000-0 -20784-4 0  9997,2 50830  53.2182  14.8201 0001187  92.2765 267.8363 15.08835858138944,6917.893,95.438,540.579,538.937,0.0
50830.0,STARLINK-3278,PAYLOAD,2024-07-13 11:23:25,15.08839193,0.0001196,53.2182,11.5493,102.0615,258.0511,2.2148e-05,6.5e-07,0.0,0 STARLINK-3278,1 50830U 22001AD  24195.47459592  .00000065  00000-0  22148-4 0  9999,2 50830  53.2182  11.5493 0001196 102.0615 258.0511 15.08839193139051,6917.883,95.438,540.575,538.92,0.0
50830.0,STARLINK-3278,PAYLOAD,2024-07-13 17:44:57,15.08841773,0.0001122,53.2192,10.3612,102.9576,257.1541,5.9667e-05,6.62e-06,0.0,0 STARLINK-3278,1 50830U 22001AD  24195.73955498  .00000662  00000-0  59667-4 0  9993,2 50830  53.2192  10.3612 0001122 102.9576 257.1541 15.08841773140362,6917.875,95.437,540.516,538.964,0.0
50830.0,STARLINK-3278,PAYLOAD,2024-07-14 11:14:12,15.08839456,0.0001064,53.2177,7.0895,77.214,282.8971,0.00016895,2.402e-05,0.0,0 STARLINK-3278,1 50830U 22001AD  24196.46819825  .00002402  00000-0  16895-3 0  9996,2 50830  53.2177   7.0895 0001064  77.2140 282.8971 15.08839456139205,6917.882,95.438,540.483,539.011,0.0
50830.0,STARLINK-3278,PAYLOAD,2024-07-14 19:11:07,15.08847373,8.57e-05,53.217,5.6016,81.2402,278.8688,0.00023752,3.495e-05,0.0,0 STARLINK-3278,1 50830U 22001AD  24196.79939379  .00003495  00000-0  23752-3 0  9992,2 50830  53.2170   5.6016 0000857  81.2402 278.8688 15.08847373140526,6917.858,95.437,540.316,539.13,0.0
50830.0,STARLINK-3278,PAYLOAD,2024-07-15 11:04:59,15.0883363,8.17e-05,53.2188,2.6246,113.5469,246.5609,0.00020991,3.054e-05,0.0,0 STARLINK-3278,1 50830U 22001AD  24197.46180052  .00003054  00000-0  20991-3 0  9996,2 50830  53.2188   2.6246 0000817 113.5469 246.5609 15.08833630140622,6917.9,95.438,540.33,539.2,0.0
50830.0,STARLINK-3278,PAYLOAD,2024-07-15 19:01:54,15.0884373,0.0001111,53.2165,1.141,81.6805,278.4313,8.5578e-05,1.075e-05,0.0,0 STARLINK-3278,1 50830U 22001AD  24197.79299640  .00001075  00000-0  85578-4 0  9990,2 50830  53.2165   1.1410 0001111  81.6805 278.4313 15.08843730139403,6917.869,95.437,540.503,538.965,0.0
50830.0,STARLINK-3278,PAYLOAD,2024-07-16 14:06:32,15.08844876,0.0001262,53.2169,357.573,77.5509,282.5625,0.00010938,1.454e-05,0.0,0 STARLINK-3278,1 50830U 22001AD  24198.58787611  .00001454  00000-0  10938-3 0  9996,2 50830  53.2169 357.5730 0001262  77.5509 282.5625 15.08844876139529,6917.865,95.437,540.604,538.857,0.0
50830.0,STARLINK-3278,PAYLOAD,2024-07-16 17:17:18,15.08850174,0.0001119,53.2183,356.9773,84.7163,275.3957,0.00010984,1.461e-05,0.0,0 STARLINK-3278,1 50830U 22001AD  24198.72035194  .00001461  00000-0  10984-3 0  9993,2 50830  53.2183 356.9773 0001119  84.7163 275.3957 15.08850174140812,6917.849,95.437,540.488,538.94,0.0
50830.0,STARLINK-3278,PAYLOAD,2024-07-17 10:46:33,15.08835615,0.0001074,53.2173,353.7069,103.242,256.8692,3.2431e-05,2.28e-06,0.0,0 STARLINK-3278,1 50830U 22001AD  24199.44899976  .00000228  00000-0  32431-4 0  9991,2 50830  53.2173 353.7069 0001074 103.2420 256.8692 15.08835615140922,6917.894,95.438,540.502,539.016,0.0
50830.0,STARLINK-3278,PAYLOAD,2024-07-17 13:57:19,15.08835427,0.0001388,53.2178,353.1102,122.6598,237.4528,9.8481e-05,1.28e-05,0.0,0 STARLINK-3278,1 50830U 22001AD  24199.58148044  .00001280  00000-0  98481-4 0  9995,2 50830  53.2178 353.1102 0001388 122.6598 237.4528 15.08835427139672,6917.894,95.438,540.72,538.799,0.0
50830.0,STARLINK-3278,PAYLOAD,2024-07-17 17:08:06,15.08838061,0.000105,53.2187,352.5167,103.6095,256.5015,1.5347e-05,-4.4e-07,0.0,0 STARLINK-3278,1 50830U 22001AD  24199.71395986 -.00000044  00000-0  15347-4 0  9997,2 50830  53.2187 352.5167 0001050 103.6095 256.5015 15.08838061139695,6917.886,95.438,540.478,539.025,0.0
50830.0,STARLINK-3278,PAYLOAD,2024-07-18 13:48:07,15.08837845,0.0001079,53.2193,348.653,102.2194,257.8919,3.9511e-05,3.41e-06,0.0,0 STARLINK-3278,1 50830U 22001AD  24200.57508280  .00000341  00000-0  39511-4 0  9995,2 50830  53.2193 348.6530 0001079 102.2194 257.8919 15.08837845139829,6917.887,95.438,540.498,539.006,0.0
50830.0,STARLINK-3278,PAYLOAD,2024-07-18 16:58:53,15.0884591,0.000115,53.2192,348.0591,108.0041,252.1077,8.624e-05,1.085e-05,0.0,0 STARLINK-3278,1 50830U 22001AD  24200.70755922  .00001085  00000-0  86240-4 0  9994,2 50830  53.2192 348.0591 0001150 108.0041 252.1077 15.08845910139841,6917.862,95.437,540.523,538.932,0.0
50830.0,STARLINK-3278,PAYLOAD,2024-07-19 13:38:54,15.0883839,9.83e-05,53.2185,344.1924,92.3097,267.8008,0.00014417,2.007e-05,0.0,0 STARLINK-3278,1 50830U 22001AD  24201.56868370  .00002007  00000-0  14417-3 0  9992,2 50830  53.2185 344.1924 0000983  92.3097 267.8008 15.08838390139974,6917.885,95.438,540.43,539.07,0.0
50830.0,STARLINK-3278,PAYLOAD,2024-07-19 16:49:40,15.08841472,0.0001115,53.2191,343.6016,107.9087,252.2027,0.00018344,2.633e-05,0.0,0 STARLINK-3278,1 50830U 22001AD  24201.70116140  .00002633  00000-0  18344-3 0  9997,2 50830  53.2191 343.6016 0001115 107.9087 252.2027 15.08841472141266,6917.876,95.437,540.512,538.97,0.0
50830.0,STARLINK-3278,PAYLOAD,2024-07-20 13:29:41,15.08837631,0.0001076,53.2181,339.7346,97.4619,262.6495,7.287e-05,8.72e-06,0.0,0 STARLINK-3278,1 50830U 22001AD  24202.56228381  .00000872  00000-0  72870-4 0  9991,2 50830  53.2181 339.7346 0001076  97.4619 262.6495 15.08837631141397,6917.888,95.438,540.497,539.008,0.0
